{"type": "FeatureCollection", "features": [ {"type": "Feature", "properties": {"norad_id": 30557, "name": "FENGYUN 1C DEB", "group": "fengyun-1c-debris", "lat": 42.38676836862864, "lon": -117.75418653525323, "alt_km": 852.4420506473261, "timestamp": "2025-12-14T20:40:32.048960+00:00", "meta": {"OBJECT_NAME": "FENGYUN 1C DEB", "OBJECT_ID": "1999-025AKX", "EPOCH": "2025-12-13T15:05:12.131232", "MEAN_MOTION": 14.10803776, "ECCENTRICITY": 0.00682403, "INCLINATION": 98.9203, "RA_OF_ASC_NODE": 52.7805, "ARG_OF_PERICENTER": 230.0302, "MEAN_ANOMALY": 129.4863, "EPHEMERIS_TYPE": 0, "CLASSIFICATION_TYPE": "U", "NORAD_CAT_ID": 30557, "ELEMENT_SET_NO": 999, "REV_AT_EPOCH": 96313, "BSTAR": 0.0018116485, "MEAN_MOTION_DOT": 3.271e-05, "MEAN_MOTION_DDOT": 0}, "tle": {"line1": "1 30557U 99025AKX 25347.62861263  .00003271  00000+0  18116-2 0  9991", "line2": "2 30557  98.9203  52.7805 0068240 230.0302 129.4863 14.10803776963132"}}, "geometry": {"type": "Point", "coordinates": [-117.75418653525323, 42.38676836862864]}}, {"type": "Feature", "properties": {"norad_id": 30558, "name": "FENGYUN 1C DEB", "group": "fengyun-1c-debris", "lat": -41.236887933488156, "lon": 138.04664811634657, "alt_km": 945.3465978885979, "timestamp": "2025-12-14T20:40:32.048970+00:00", "meta": {"OBJECT_NAME": "FENGYUN 1C DEB", "OBJECT_ID": "1999-025AKY", "EPOCH": "2025-12-09T16:09:58.996800", "MEAN_MOTION": 13.28486111, "ECCENTRICITY": 0.04256851, "INCLINATION": 99.4674, "RA_OF_ASC_NODE": 124.8713, "ARG_OF_PERICENTER": 280.5886, "MEAN_ANOMALY": 74.757, "EPHEMERIS_TYPE": 0, "CLASSIFICATION_TYPE": "U", "NORAD_CAT_ID": 30558, "ELEMENT_SET_NO": 999, "REV_AT_EPOCH": 90717, "BSTAR": 0.0051946283, "MEAN_MOTION_DOT": 3.853e-05, "MEAN_MOTION_DDOT": 0}, "tle": {"line1": "1 30558U 99025AKY 25343.67359950  .00003853  00000+0  51946-2 0  9992", "line2": "2 30558  99.4674 124.8713 0425685 280.5886  74.7570 13.28486111907174"}}, "geometry": {"type": "Point", "coordinates": [138.04664811634657, -41.236887933488156]}}, {"type": "Feature", "properties": {"norad_id": 30560, "name": "FENGYUN 1C DEB", "group": "fengyun-1c-debris", "lat": -59.77951132641214, "lon": -2.2782241315621183, "alt_km": 846.6502317102068, "timestamp": "2025-12-14T20:40:32.048980+00:00", "meta": {"OBJECT_NAME": "FENGYUN 1C DEB", "OBJECT_ID": "1999-025ALA", "EPOCH": "2025-12-13T23:11:58.463232", "MEAN_MOTION": 14.17028219, "ECCENTRICITY": 0.01149671, "INCLINATION": 98.6637, "RA_OF_ASC_NODE": 341.6757, "ARG_OF_PERICENTER": 208.1812, "MEAN_ANOMALY": 207.3819, "EPHEMERIS_TYPE": 0, "CLASSIFICATION_TYPE": "U", "NORAD_CAT_ID": 30560, "ELEMENT_SET_NO": 999, "REV_AT_EPOCH": 97386, "BSTAR": 0.00035144106, "MEAN_MOTION_DOT": 7.11e-06, "MEAN_MOTION_DDOT": 0}, "tle": {"line1": "1 30560U 99025ALA 25347.96664888  .00000711  00000+0  35144-3 0  9993", "line2": "2 30560  98.6637 341.6757 0114967 208.1812 207.3819 14.17028219973866"}}, "geometry": {"type": "Point", "coordinates": [-2.2782241315621183, -59.77951132641214]}}, {"type": "Feature", "properties": {"norad_id": 30561, "name": "FENGYUN 1C DEB", "group": "fengyun-1c-debris", "lat": -7.074963741023187, "lon": -7.971269416167213, "alt_km": 877.1741210556293, "timestamp": "2025-12-14T20:40:32.048991+00:00", "meta": {"OBJECT_NAME": "FENGYUN 1C DEB", "OBJECT_ID": "1999-025ALB", "EPOCH": "2025-12-14T05:59:53.831904", "MEAN_MOTION": 14.11273438, "ECCENTRICITY": 0.00607217, "INCLINATION": 98.7248, "RA_OF_ASC_NODE": 350.3424, "ARG_OF_PERICENTER": 109.747, "MEAN_ANOMALY": 18.5296, "EPHEMERIS_TYPE": 0, "CLASSIFICATION_TYPE": "U", "NORAD_CAT_ID": 30561, "ELEMENT_SET_NO": 999, "REV_AT_EPOCH": 96999, "BSTAR": 0.00043847447, "MEAN_MOTION_DOT": 7.63e-06, "MEAN_MOTION_DDOT": 0}, "tle": {"line1": "1 30561U 99025ALB 25348.24992861  .00000763  00000+0  43847-3 0  9997", "line2": "2 30561  98.7248 350.3424 0060721 109.7470  18.5296 14.11273438969997"}}, "geometry": {"type": "Point", "coordinates": [-7.971269416167213, -7.074963741023187]}}, {"type": "Feature", "properties": {"norad_id": 30562, "name": "FENGYUN 1C DEB", "group": "fengyun-1c-debris", "lat": -47.65064616414053, "lon": 66.340795557663, "alt_km": 795.6892973418453, "timestamp": "2025-12-14T20:40:32.049001+00:00", "meta": {"OBJECT_NAME": "FENGYUN 1C DEB", "OBJECT_ID": "1999-025ALC", "EPOCH": "2025-12-14T04:17:03.418656", "MEAN_MOTION": 14.23068158, "ECCENTRICITY": 0.00591629, "INCLINATION": 98.7634, "RA_OF_ASC_NODE": 55.9182, "ARG_OF_PERICENTER": 261.1533, "MEAN_ANOMALY": 153.0749, "EPHEMERIS_TYPE": 0, "CLASSIFICATION_TYPE": "U", "NORAD_CAT_ID": 30562, "ELEMENT_SET_NO": 999, "REV_AT_EPOCH": 97020, "BSTAR": 0.001770655, "MEAN_MOTION_DOT": 4.022e-05, "MEAN_MOTION_DDOT": 0}, "tle": {"line1": "1 30562U 99025ALC 25348.17851179  .00004022  00000+0  17707-2 0  9993", "line2": "2 30562  98.7634  55.9182 0059162 261.1533 153.0749 14.23068158970204"}}, "geometry": {"type": "Point", "coordinates": [66.340795557663, -47.65064616414053]}}, {"type": "Feature", "properties": {"norad_id": 30564, "name": "FENGYUN 1C DEB", "group": "fengyun-1c-debris", "lat": 65.83696546108618, "lon": -159.22238629487666, "alt_km": 720.2607130552451, "timestamp": "2025-12-14T20:40:32.049011+00:00", "meta": {"OBJECT_NAME": "FENGYUN 1C DEB", "OBJECT_ID": "1999-025ALE", "EPOCH": "2025-12-13T19:22:35.218848", "MEAN_MOTION": 14.05752585, "ECCENTRICITY": 0.0202962, "INCLINATION": 98.7958, "RA_OF_ASC_NODE": 359.5652, "ARG_OF_PERICENTER": 115.8906, "MEAN_ANOMALY": 64.9854, "EPHEMERIS_TYPE": 0, "CLASSIFICATION_TYPE": "U", "NORAD_CAT_ID": 30564, "ELEMENT_SET_NO": 999, "REV_AT_EPOCH": 96310, "BSTAR": 0.00081477235, "MEAN_MOTION_DOT": 1.56e-05, "MEAN_MOTION_DDOT": 0}, "tle": {"line1": "1 30564U 99025ALE 25347.80735207  .00001560  00000+0  81477-3 0  9997", "line2": "2 30564  98.7958 359.5652 0202962 115.8906  64.9854 14.05752585963109"}}, "geometry": {"type": "Point", "coordinates": [-159.22238629487666, 65.83696546108618]}}, {"type": "Feature", "properties": {"norad_id": 30565, "name": "FENGYUN 1C DEB", "group": "fengyun-1c-debris", "lat": -60.82145072569882, "lon": -125.59112016846, "alt_km": 803.4095871436875, "timestamp": "2025-12-14T20:40:32.049021+00:00", "meta": {"OBJECT_NAME": "FENGYUN 1C DEB", "OBJECT_ID": "1999-025ALF", "EPOCH": "2025-12-13T14:26:31.710624", "MEAN_MOTION": 14.09943701, "ECCENTRICITY": 0.01419498, "INCLINATION": 98.4546, "RA_OF_ASC_NODE": 217.7766, "ARG_OF_PERICENTER": 354.3371, "MEAN_ANOMALY": 34.495, "EPHEMERIS_TYPE": 0, "CLASSIFICATION_TYPE": "U", "NORAD_CAT_ID": 30565, "ELEMENT_SET_NO": 999, "REV_AT_EPOCH": 95939, "BSTAR": 0.0021923194, "MEAN_MOTION_DOT": 4.203e-05, "MEAN_MOTION_DDOT": 0}, "tle": {"line1": "1 30565U 99025ALF 25347.60175591  .00004203  00000+0  21923-2 0  9996", "line2": "2 30565  98.4546 217.7766 0141949 354.3371  34.4950 14.09943701959395"}}, "geometry": {"type": "Point", "coordinates": [-125.59112016846, -60.82145072569882]}}, {"type": "Feature", "properties": {"norad_id": 30566, "name": "FENGYUN 1C DEB", "group": "fengyun-1c-debris", "lat": -71.34478877638955, "lon": -171.28907574830305, "alt_km": 849.7264759132013, "timestamp": "2025-12-14T20:40:32.049032+00:00", "meta": {"OBJECT_NAME": "FENGYUN 1C DEB", "OBJECT_ID": "1999-025ALG", "EPOCH": "2025-12-14T02:44:11.532768", "MEAN_MOTION": 14.11695587, "ECCENTRICITY": 0.00684012, "INCLINATION": 99.2165, "RA_OF_ASC_NODE": 36.6888, "ARG_OF_PERICENTER": 178.3303, "MEAN_ANOMALY": 238.0002, "EPHEMERIS_TYPE": 0, "CLASSIFICATION_TYPE": "U", "NORAD_CAT_ID": 30566, "ELEMENT_SET_NO": 999, "REV_AT_EPOCH": 96402, "BSTAR": 0.0014577143, "MEAN_MOTION_DOT": 2.666e-05, "MEAN_MOTION_DDOT": 0}, "tle": {"line1": "1 30566U 99025ALG 25348.11402237  .00002666  00000+0  14577-2 0  9992", "line2": "2 30566  99.2165  36.6888 0068401 178.3303 238.0002 14.11695587964020"}}, "geometry": {"type": "Point", "coordinates": [-171.28907574830305, -71.34478877638955]}}, {"type": "Feature", "properties": {"norad_id": 30567, "name": "FENGYUN 1C DEB", "group": "fengyun-1c-debris", "lat": -8.903636551930498, "lon": 158.10636204190556, "alt_km": 788.6667362454609, "timestamp": "2025-12-14T20:40:32.049042+00:00", "meta": {"OBJECT_NAME": "FENGYUN 1C DEB", "OBJECT_ID": "1999-025ALH", "EPOCH": "2025-12-13T21:55:26.740416", "MEAN_MOTION": 14.08900116, "ECCENTRICITY": 0.01088214, "INCLINATION": 98.7758, "RA_OF_ASC_NODE": 338.57, "ARG_OF_PERICENTER": 185.9858, "MEAN_ANOMALY": 237.2766, "EPHEMERIS_TYPE": 0, "CLASSIFICATION_TYPE": "U", "NORAD_CAT_ID": 30567, "ELEMENT_SET_NO": 999, "REV_AT_EPOCH": 96790, "BSTAR": 0.00041346649, "MEAN_MOTION_DOT": 7.12e-06, "MEAN_MOTION_DDOT": 0}, "tle": {"line1": "1 30567U 99025ALH 25347.91350394  .00000712  00000+0  41347-3 0  9992", "line2": "2 30567  98.7758 338.5700 0108821 185.9858 237.2766 14.08900116967901"}}, "geometry": {"type": "Point", "coordinates": [158.10636204190556, -8.903636551930498]}}, {"type": "Feature", "properties": {"norad_id": 30568, "name": "FENGYUN 1C DEB", "group": "fengyun-1c-debris", "lat": 63.62149420098238, "lon": 140.68172612952304, "alt_km": 708.5802332489857, "timestamp": "2025-12-14T20:40:32.049051+00:00", "meta": {"OBJECT_NAME": "FENGYUN 1C DEB", "OBJECT_ID": "1999-025ALJ", "EPOCH": "2025-12-14T06:20:15.414720", "MEAN_MOTION": 14.55214895, "ECCENTRICITY": 0.00161376, "INCLINATION": 98.9423, "RA_OF_ASC_NODE": 158.5541, "ARG_OF_PERICENTER": 189.9058, "MEAN_ANOMALY": 347.4463, "EPHEMERIS_TYPE": 0, "CLASSIFICATION_TYPE": "U", "NORAD_CAT_ID": 30568, "ELEMENT_SET_NO": 999, "REV_AT_EPOCH": 97681, "BSTAR": 0.0036126575, "MEAN_MOTION_DOT": 0.00015639, "MEAN_MOTION_DDOT": 0}, "tle": {"line1": "1 30568U 99025ALJ 25348.26406730  .00015639  00000+0  36127-2 0  9991", "line2": "2 30568  98.9423 158.5541 0016137 189.9058 347.4463 14.55214895976812"}}, "geometry": {"type": "Point", "coordinates": [140.68172612952304, 63.62149420098238]}}]}